[{"OBJECT_NAME":"TDRS 3","OBJECT_ID":"1988-091B","EPOCH":"2026-04-05T12:30:48.809664","MEAN_MOTION":1.00267327,"ECCENTRICITY":0.0042096,"INCLINATION":12.6573,"RA_OF_ASC_NODE":341.4807,"ARG_OF_PERICENTER":356.2277,"MEAN_ANOMALY":354.785,"EPHEMERIS_TYPE":0,"CLASSIFICATION_TYPE":"U","NORAD_CAT_ID":19548,"ELEMENT_SET_NO":999,"REV_AT_EPOCH":12465,"BSTAR":0,"MEAN_MOTION_DOT":-2.98e-6,"MEAN_MOTION_DDOT":0},{"OBJECT_NAME":"HST","OBJECT_ID":"1990-037B","EPOCH":"2026-04-05T15:01:46.095744","MEAN_MOTION":15.29942321,"ECCENTRICITY":0.0002248,"INCLINATION":28.4724,"RA_OF_ASC_NODE":216.1877,"ARG_OF_PERICENTER":70.2835,"MEAN_ANOMALY":289.8004,"EPHEMERIS_TYPE":0,"CLASSIFICATION_TYPE":"U","NORAD_CAT_ID":20580,"ELEMENT_SET_NO":999,"REV_AT_EPOCH":77744,"BSTAR":0.00030389,"MEAN_MOTION_DOT":9.304e-5,"MEAN_MOTION_DDOT":0},{"OBJECT_NAME":"TDRS 5","OBJECT_ID":"1991-054B","EPOCH":"2026-04-05T10:25:38.525088","MEAN_MOTION":1.00279773,"ECCENTRICITY":0.0008517,"INCLINATION":14.0808,"RA_OF_ASC_NODE":354.3167,"ARG_OF_PERICENTER":279.2819,"MEAN_ANOMALY":269.0253,"EPHEMERIS_TYPE":0,"CLASSIFICATION_TYPE":"U","NORAD_CAT_ID":21639,"ELEMENT_SET_NO":999,"REV_AT_EPOCH":12698,"BSTAR":0,"MEAN_MOTION_DOT":8.6e-7,"MEAN_MOTION_DDOT":0},{"OBJECT_NAME":"TDRS 6","OBJECT_ID":"1993-003B","EPOCH":"2026-04-05T05:42:45.372096","MEAN_MOTION":1.00267173,"ECCENTRICITY":0.0005106,"INCLINATION":14.182,"RA_OF_ASC_NODE":357.6013,"ARG_OF_PERICENTER":182.3645,"MEAN_ANOMALY":53.3177,"EPHEMERIS_TYPE":0,"CLASSIFICATION_TYPE":"U","NORAD_CAT_ID":22314,"ELEMENT_SET_NO":999,"REV_AT_EPOCH":12167,"BSTAR":0,"MEAN_MOTION_DOT":-2.95e-6,"MEAN_MOTION_DDOT":0},{"OBJECT_NAME":"TDRS 7","OBJECT_ID":"1995-035B","EPOCH":"2026-04-05T17:01:38.748864","MEAN_MOTION":1.00267993,"ECCENTRICITY":0.0009366,"INCLINATION":13.4077,"RA_OF_ASC_NODE":348.6886,"ARG_OF_PERICENTER":55.7053,"MEAN_ANOMALY":133.989,"EPHEMERIS_TYPE":0,"CLASSIFICATION_TYPE":"U","NORAD_CAT_ID":23613,"ELEMENT_SET_NO":999,"REV_AT_EPOCH":11252,"BSTAR":0,"MEAN_MOTION_DOT":-2.35e-6,"MEAN_MOTION_DDOT":0},{"OBJECT_NAME":"ISS (ZARYA)","OBJECT_ID":"1998-067A","EPOCH":"2026-04-05T19:28:26.281920","MEAN_MOTION":15.48791307,"ECCENTRICITY":0.0006355,"INCLINATION":51.6329,"RA_OF_ASC_NODE":298.2672,"ARG_OF_PERICENTER":276.3215,"MEAN_ANOMALY":83.7049,"EPHEMERIS_TYPE":0,"CLASSIFICATION_TYPE":"U","NORAD_CAT_ID":25544,"ELEMENT_SET_NO":999,"REV_AT_EPOCH":56053,"BSTAR":0.0001599,"MEAN_MOTION_DOT":8.309e-5,"MEAN_MOTION_DDOT":0},{"OBJECT_NAME":"TERRA","OBJECT_ID":"1999-068A","EPOCH":"2026-04-05T20:16:53.919264","MEAN_MOTION":14.61045872,"ECCENTRICITY":0.0003673,"INCLINATION":97.9536,"RA_OF_ASC_NODE":148.2346,"ARG_OF_PERICENTER":95.9761,"MEAN_ANOMALY":14.7792,"EPHEMERIS_TYPE":0,"CLASSIFICATION_TYPE":"U","NORAD_CAT_ID":25994,"ELEMENT_SET_NO":999,"REV_AT_EPOCH":39904,"BSTAR":0.00013084,"MEAN_MOTION_DOT":5.98e-6,"MEAN_MOTION_DDOT":0},{"OBJECT_NAME":"TDRS 8","OBJECT_ID":"2000-034A","EPOCH":"2026-04-05T19:59:33.544032","MEAN_MOTION":1.00270287,"ECCENTRICITY":0.0005839,"INCLINATION":12.5715,"RA_OF_ASC_NODE":31.9272,"ARG_OF_PERICENTER":330.3626,"MEAN_ANOMALY":216.5911,"EPHEMERIS_TYPE":0,"CLASSIFICATION_TYPE":"U","NORAD_CAT_ID":26388,"ELEMENT_SET_NO":999,"REV_AT_EPOCH":9445,"BSTAR":0,"MEAN_MOTION_DOT":-1.92e-6,"MEAN_MOTION_DDOT":0},{"OBJECT_NAME":"TIMED","OBJECT_ID":"2001-055B","EPOCH":"2026-04-05T21:07:45.734880","MEAN_MOTION":14.95125137,"ECCENTRICITY":0.0002557,"INCLINATION":74.0712,"RA_OF_ASC_NODE":20.5894,"ARG_OF_PERICENTER":240.0721,"MEAN_ANOMALY":120.021,"EPHEMERIS_TYPE":0,"CLASSIFICATION_TYPE":"U","NORAD_CAT_ID":26998,"ELEMENT_SET_NO":999,"REV_AT_EPOCH":32001,"BSTAR":0.00021113,"MEAN_MOTION_DOT":2.278e-5,"MEAN_MOTION_DDOT":0},{"OBJECT_NAME":"AQUA","OBJECT_ID":"2002-022A","EPOCH":"2026-04-05T20:20:18.864384","MEAN_MOTION":14.62044454,"ECCENTRICITY":0.0001445,"INCLINATION":98.4221,"RA_OF_ASC_NODE":63.7168,"ARG_OF_PERICENTER":114.5211,"MEAN_ANOMALY":266.6869,"EPHEMERIS_TYPE":0,"CLASSIFICATION_TYPE":"U","NORAD_CAT_ID":27424,"ELEMENT_SET_NO":999,"REV_AT_EPOCH":27270,"BSTAR":0.00029976,"MEAN_MOTION_DOT":1.455e-5,"MEAN_MOTION_DDOT":0},{"OBJECT_NAME":"SORCE","OBJECT_ID":"2003-004A","EPOCH":"2026-04-05T20:55:02.323488","MEAN_MOTION":15.03321194,"ECCENTRICITY":0.001855,"INCLINATION":39.9913,"RA_OF_ASC_NODE":314.1399,"ARG_OF_PERICENTER":254.5581,"MEAN_ANOMALY":105.3164,"EPHEMERIS_TYPE":0,"CLASSIFICATION_TYPE":"U","NORAD_CAT_ID":27651,"ELEMENT_SET_NO":999,"REV_AT_EPOCH":26101,"BSTAR":0.00029295,"MEAN_MOTION_DOT":3.91e-5,"MEAN_MOTION_DDOT":0},{"OBJECT_NAME":"AURA","OBJECT_ID":"2004-026A","EPOCH":"2026-04-05T19:32:46.815072","MEAN_MOTION":14.6121615,"ECCENTRICITY":0.0001429,"INCLINATION":98.3356,"RA_OF_ASC_NODE":51.7022,"ARG_OF_PERICENTER":93.7317,"MEAN_ANOMALY":266.4046,"EPHEMERIS_TYPE":0,"CLASSIFICATION_TYPE":"U","NORAD_CAT_ID":28376,"ELEMENT_SET_NO":999,"REV_AT_EPOCH":15564,"BSTAR":0.00030852,"MEAN_MOTION_DOT":1.472e-5,"MEAN_MOTION_DDOT":0},{"OBJECT_NAME":"SWIFT","OBJECT_ID":"2004-047A","EPOCH":"2026-04-05T10:58:39.953568","MEAN_MOTION":15.61958526,"ECCENTRICITY":0.00029543,"INCLINATION":20.5544,"RA_OF_ASC_NODE":23.1109,"ARG_OF_PERICENTER":14.1211,"MEAN_ANOMALY":345.9316,"EPHEMERIS_TYPE":0,"CLASSIFICATION_TYPE":"U","NORAD_CAT_ID":28485,"ELEMENT_SET_NO":999,"REV_AT_EPOCH":17545,"BSTAR":0.0006361734,"MEAN_MOTION_DOT":0.0005913,"MEAN_MOTION_DDOT":0},{"OBJECT_NAME":"THEMIS A","OBJECT_ID":"2007-004A","EPOCH":"2026-04-04T17:18:20.320992","MEAN_MOTION":0.87845402,"ECCENTRICITY":0.8390797,"INCLINATION":7.2715,"RA_OF_ASC_NODE":116.4659,"ARG_OF_PERICENTER":184.5408,"MEAN_ANOMALY":152.547,"EPHEMERIS_TYPE":0,"CLASSIFICATION_TYPE":"U","NORAD_CAT_ID":30580,"ELEMENT_SET_NO":999,"REV_AT_EPOCH":4063,"BSTAR":-0.0055815,"MEAN_MOTION_DOT":-7.3e-7,"MEAN_MOTION_DDOT":0},{"OBJECT_NAME":"THEMIS D","OBJECT_ID":"2007-004D","EPOCH":"2026-04-05T17:53:44.077920","MEAN_MOTION":0.87834715,"ECCENTRICITY":0.8345441,"INCLINATION":6.9913,"RA_OF_ASC_NODE":83.3525,"ARG_OF_PERICENTER":220.4723,"MEAN_ANOMALY":102.5126,"EPHEMERIS_TYPE":0,"CLASSIFICATION_TYPE":"U","NORAD_CAT_ID":30797,"ELEMENT_SET_NO":999,"REV_AT_EPOCH":4044,"BSTAR":0,"MEAN_MOTION_DOT":-1.22e-6,"MEAN_MOTION_DDOT":0},{"OBJECT_NAME":"THEMIS E","OBJECT_ID":"2007-004E","EPOCH":"2026-04-05T19:32:27.075264","MEAN_MOTION":0.88159961,"ECCENTRICITY":0.8393515,"INCLINATION":4.9513,"RA_OF_ASC_NODE":100.1578,"ARG_OF_PERICENTER":204.7754,"MEAN_ANOMALY":155.9271,"EPHEMERIS_TYPE":0,"CLASSIFICATION_TYPE":"U","NORAD_CAT_ID":30798,"ELEMENT_SET_NO":999,"REV_AT_EPOCH":6528,"BSTAR":0,"MEAN_MOTION_DOT":-1.07e-6,"MEAN_MOTION_DDOT":0},{"OBJECT_NAME":"FGRST (GLAST)","OBJECT_ID":"2008-029A","EPOCH":"2026-04-05T20:46:28.305696","MEAN_MOTION":15.23556128,"ECCENTRICITY":0.0008039,"INCLINATION":25.584,"RA_OF_ASC_NODE":346.4934,"ARG_OF_PERICENTER":190.3046,"MEAN_ANOMALY":169.7328,"EPHEMERIS_TYPE":0,"CLASSIFICATION_TYPE":"U","NORAD_CAT_ID":33053,"ELEMENT_SET_NO":999,"REV_AT_EPOCH":98479,"BSTAR":0.00017074,"MEAN_MOTION_DOT":4.54e-5,"MEAN_MOTION_DDOT":0}]
